#dP2022  6  7  0  0  0.00000000      96 __u+U ITR14 FIT  IAC
## 2213 172800.00000000   900.00000000 59737 0.0000000000000
+  126   C01C02C03C04C05C06C07C08C09C10C11C12C13C14C16C19C20
+        C21C22C23C24C25C26C27C28C29C30C32C33C34C35C36C37C38
+        C39C40C41C42C43C44C45C46C60E01E02E03E04E05E07E08E09
+        E10E11E12E13E14E15E18E19E21E24E25E26E27E30E31E33E34
+        E36G01G02G03G04G05G06G07G08G09G10G11G12G13G14G15G16
+        G17G18G19G20G21G22G23G24G25G26G27G28G29G30G31G32J02
+        J03J07R01R02R03R04R05R06R07R08R09R10R11R12R13R14R15
+        R17R18R19R20R21R23R24  0  0  0  0  0  0  0  0  0  0
++        17 17 17 17 17  9  9  9  8  8  9  8  9  9  9  7  7
++         7  7  7  7  7  7  7  7  7  7  7  7  7  7  7  7  8
++         8  8  7  7  7  7  7  7 17  4  4  4  5  4  4  4  4
++         5  4  4  4  5  4  4  4  4  4  4  4  4  4  5  5  4
++         4  4  4  4  4  3  4  4  3  4  4  4  4  4  3  4  4
++         4  3  4  4  4  4  3  4  4  4  3  4  4  3  4  4  8
++         8 18  7  6  6  6  6 15  6  6  6 15  6  5  7  6  6
++         6  6  7  7  6 15  6  0  0  0  0  0  0  0  0  0  0
%c M  cc GPS ccc cccc cccc cccc cccc ccccc ccccc ccccc ccccc
%c cc cc ccc ccc cccc cccc cccc cccc ccccc ccccc ccccc ccccc
%f  0.0000000  0.000000000  0.00000000000  0.000000000000000
%f  0.0000000  0.000000000  0.00000000000  0.000000000000000
%i    0    0    0    0      0      0      0      0         0
%i    0    0    0    0      0      0      0      0         0
/* INFORMATION & ANALYSIS CENTER (IAC)            RAPID DATA
/* S/V CLOCKS ARE ALIGNED TO GNSS TIME                      
/* G:C1WC2W R:C1PC2P E:C1XC5X C:C2IC6I J:C1CC2S             
/* PCV:IGS14_2196 OL/AL:FES2004  NONE     YN ORB:CoN CLK:CoN
*  2022 06 07  8 30  0.00000000
PC01 -34263.147323  24536.686368    612.596727    279.981934
PC02   4339.326067  41929.124538    572.060893    -54.835856
PC03 -14812.754097  39435.941859   1299.106941   -534.256161
PC04 -39619.829237  14383.048900    421.571705    -11.846296
PC05  21820.961048  36020.683647    295.132038    252.486152
PC06 -16884.350522  29156.437128 -25464.186552    139.709471
PC07  -6572.199157  40148.689537 -10762.753164   -266.991501
PC08  -1313.394509  22841.517038  35444.074441    350.908290
PC09 -10779.378078  27990.132249 -29454.783028   -860.107825
PC10   -119.239145  41733.335332  -3461.153309    127.886167
PC11  -3379.615074 -15408.965109 -22965.735032    399.531787
PC12  14943.588025 -19097.717799 -13794.527312   -603.070532
PC13   5148.165692  26384.554504  32683.186977    -10.835854
PC14  -5967.804801 -26133.907695   7896.335171    495.415783
PC16 -20743.874084  28733.984816 -22861.775047    137.844719
PC19  11307.104894  19913.183227 -15901.989131    861.261663
PC20    726.510773  27875.300126   -277.790115   -948.113778
PC21  11013.063888 -19599.034660 -16532.002343   -437.781053
PC22  15803.695348     58.581113 -22994.990073   -965.577230
PC23 -25316.552060  -5785.520511 -10208.237651   -932.618019
PC24  -3070.775803 -18639.097359  20528.623756   -971.842521
PC25 -21421.662842 -16626.306568   6543.424421   -725.441638
PC26  14287.853742 -10074.128783  21748.826542    726.938960
PC27 -21347.498891  17021.619705   5783.973867    735.188564
PC28 -24951.779812   5506.898172 -11217.330542     75.724590
PC29  14067.625288   9342.515742  22203.961770    565.086115
PC30  -5405.155798  19345.591814  19369.532821    499.570323
PC32 -10928.631307  19587.763445  16609.573658   -966.700266
PC33 -11424.522837 -19940.294693  15855.728187   -968.221604
PC34   4286.276075 -19097.897274 -19898.337353   -386.302729
PC35  24522.800471  -5485.580050  12087.052340    309.452184
PC36  20725.165323  17315.943346  -7002.246291   -966.775871
PC37 -15505.121307   8910.726309 -21400.003534   -908.660105
PC38 -10223.930578  20914.818318  35186.110500      1.431797
PC39 -24356.966149  29483.873965 -17921.730940     34.989019
PC40 -11761.404642  37557.435851 -14912.822208    275.425114
PC41 -15876.040208   -617.152564  22995.647186   -968.944209
PC42   -131.802582 -27910.854102   -673.637063   -963.229886
PC43 -13488.287870 -10006.607599 -22303.386214   -919.598737
PC44  20776.997896 -17737.774404  -5627.926859    684.486961
PC45  25248.231480   5581.573246  10523.589506    777.113507
PC46   4840.181123  18947.982337 -19913.650426   -365.925334
PC60   7254.617896  41491.872279   1426.553968     -0.888147
PE01 -10725.912104  13729.087767 -23927.783603   -491.447770
PE02  10611.291923 -13874.499169  23894.006239    304.110308
PE03  17723.573256 -22806.134800  -6509.863238   -566.275363
PE04  -5303.844621  26709.743868 -11586.592397  -1044.715478
PE05  19976.086955  -5388.699093 -21161.449435   -174.434686
PE07 -10581.623551 -14905.216102  23295.955741   -676.063875
PE08   5078.594595 -26653.625666  11856.291033   -542.380368
PE09  10566.498292  14708.468592 -23401.024453   -544.982916
PE10  10718.650847  14725.058677  23320.187688   -518.081910
PE11  20991.543526  10964.735850  17730.309608   3429.828902
PE12   -766.447293  16134.787451  24796.170782   4575.297570
PE13 -20429.711954 -11195.972342 -18269.320819    429.149449
PE14  11952.128368   9599.187973  18467.638597  -1815.009599
PE15    879.845701 -16065.224684 -24846.481245    740.915389
PE18 -11272.228330 -17880.553398 -24162.324561  -1358.313715
PE19 -18680.225580  21206.660575   8814.363755  -5444.342401
PE21 -19989.954941  -5178.737716 -21207.124403   -738.726291
PE24  17841.631264  23085.131155   5042.169622   -657.295075
PE25  20059.058126   5464.962002  21076.525806   -576.705923
PE26 -29592.187732    717.943118    -77.722789  -1234.250841
PE27 -18404.853045 -22344.870744  -6157.575204   -316.492011
PE30  -5115.649711 -26016.521153  13140.162932   -572.819599
PE31   6017.752202  26208.965532 -12363.565758   -497.875354
PE33 -21577.723310  11432.560292  16733.945118   -455.879626
PE34  21387.056426 -11570.771329 -16893.691399   -520.930956
PE36  29576.681948   -210.597778   1012.010810   -384.632875
PG01 -15082.305704 -13365.097491 -17785.763510    346.432354
PG02  -8459.085691  14566.367852  21223.694015   -652.882494
PG03 -12842.556629 -23129.993503   2867.933094   -270.663745
PG04  -5690.899819 -16052.134619  20368.458754   -159.620280
PG05   3602.549917  23760.633636  10976.723566    -84.643580
PG06 -22274.848449   6516.733383  13050.831383    333.756229
PG07 -25677.677797  -6153.711652   5149.814260    322.018041
PG08   1090.451171 -21228.660606 -15741.824368    -71.133673
PG09 -14189.307536  -6229.961745  21506.023133   -330.491081
PG10  15511.646208  -1164.774621 -21421.512378   -445.200286
PG11  -9884.708413  13187.458177  20818.999916    -16.972837
PG12   8838.956584  25102.975379   -923.413729   -227.353342
PG13 -11205.092811  21956.843916  -9806.235560    325.492165
PG14 -16294.924048   -303.287184 -20988.379375   -110.969251
PG15   2506.792114  21094.186504 -16170.534379    -55.163535
PG16   2950.043928 -21558.592230  14634.041896   -507.125215
PG17 -20041.226092  10278.684406 -13683.956023    622.043012
PG18  25385.427352   6252.129165   5011.996764    149.045794
PG19 -20220.040876  15492.024525  -7370.883968    167.476910
PG20  -4382.000587  18150.594531  18974.964694    512.966636
PG21  -5475.083640 -14682.771826 -20903.957069    161.297155
PG22  18798.383336 -18088.777136  -4030.198494    271.755304
PG23  17937.506091   9989.963196 -16918.171134    -26.623099
PG24  11458.516856  14534.859060 -19488.695446    226.015345
PG25  16870.426093  17131.224470  11290.895038    334.358492
PG26   9802.759226 -13561.638294  20478.347586    210.773408
PG27  11689.542095 -23039.519434  -5395.074797    213.079607
PG28 -12099.889327   9467.402024 -21184.419346    342.981914
PG29  13393.171352   6776.862994  21864.718421   -521.574564
PG30 -26229.346526    763.440620  -4830.988415   -530.603699
PG31  20970.100688  -7908.987549  14473.744397   -180.803946
PG32  19471.146538 -12922.829389 -12293.296435   -145.267517
PJ02 -20419.504752  21575.286553 -25318.267725     -0.508296
PJ03 -29353.325832  28942.714348  14282.613675     -2.681168
PJ07 -25371.732621  33674.331785     -8.449244     -0.092568
PR01  -6349.197875 -16823.694674  18105.981543      9.602752
PR02 -11414.937570   3474.431135  22599.711102    520.596935
PR03  -9521.316823  19981.136529  12774.873073     57.996924
PR04  -2477.351500  25073.048410  -3976.413710    145.253067
PR05   5894.732710  16467.785598 -18560.206213     94.191961
PR06  11496.372579  -4888.821861 -22241.724608    -52.575539
PR07   9264.721269 -20446.720235 -12030.097942     36.090446
PR08   2221.566038 -25050.393105   4258.600996    -65.565157
PR09  19645.346595   6060.989381  15065.622469     59.192890
PR10   9701.123210  -6198.393282  22762.998660    -83.072122
PR11  -6874.799002 -16523.617744  18195.511554     36.918951
PR12 -19143.985454 -16751.323215   1813.333379     18.768528
PR13 -19975.165479  -7316.758025 -14089.877840    -23.318192
PR14  -8478.467258   7386.899476 -22882.482921     25.351389
PR15   7393.554099  16944.800493 -17550.572771     95.566375
PR17 -20110.969541  12146.408423   9888.155519    532.780969
PR18  -5916.067308  12373.766844  21526.354161    119.459214
PR19  10262.245039   7033.406747  22260.954303   -191.819314
PR20  23755.379120  -3812.046560   8411.432742    -72.148746
PR21  19286.455602 -12339.738586 -11278.376669   -307.454812
PR23 -15503.392255  -3962.915250 -19880.153295    -43.403374
PR24 -23874.539349   4647.266844  -7655.879576     97.485449
EOF
